GLOBALSTAR M001         
1 25162U 98008A   25291.88703507 -.00000128  00000+0 -23780-3 0  9993
2 25162  52.0050 333.1838 0001646 148.4661  22.6228 12.38219511259030
GLOBALSTAR M004         
1 25163U 98008B   25291.55900279 -.00000050  00000+0  30004-3 0  9993
2 25163  52.0022  37.7691 0003195 192.0181 181.5278 12.63406137277284
GLOBALSTAR M002         
1 25164U 98008C   25291.91564936 -.00000061  00000+0  31287-3 0  9996
2 25164  52.0012 289.9766 0001631  15.6974 344.3897 11.61512744198446
GLOBALSTAR M003         
1 25165U 98008D   25291.97233199 -.00000198  00000+0 -11563-2 0  9993
2 25165  51.9928 185.6828 0007680 176.3525 197.6412 12.12054479248237
GLOBALSTAR M014         
1 25306U 98023A   25291.97151686 -.00000086  00000+0 -15653-3 0  9998
2 25306  51.9826 210.4559 0000221 197.5282 243.7813 11.65482576205600
GLOBALSTAR M006         
1 25307U 98023B   25291.97086082 -.00000051  00000+0  50690-3 0  9997
2 25307  51.9931 267.5578 0003298 336.8279  58.6387 11.58177330231174
GLOBALSTAR M015         
1 25308U 98023C   25291.51947497 -.00000054  00000+0  44503-3 0  9993
2 25308  51.9859  12.8045 0012006 294.8862 163.8666 11.48859475208250
GLOBALSTAR M008         
1 25309U 98023D   25291.95937828 -.00000065  00000+0  24778-3 0  9993
2 25309  51.9960 199.2056 0003433  73.5516   8.8385 12.36074393253159
